STARLINK-2257           
1 47787U 21018A   22287.08957105 -.00003226  00000+0 -19772-3 0  9994
2 47787  53.0559  69.8650 0001279  90.3035 269.8101 15.06414037 88964
STARLINK-2314           
1 47788U 21018B   22286.70301269  .00002811  00000+0  20759-3 0  9991
2 47788  53.0550  46.6108 0001694  55.2650 304.8499 15.06391440 89616
STARLINK-2315           
1 47789U 21018C   22286.81865775  .00008067  00000+0  55962-3 0  9994
2 47789  53.0551  51.0896 0000981  72.6983 287.4114 15.06413646 89558
STARLINK-2319           
1 47790U 21018D   22286.59474073  .00004495  00000+0  32049-3 0  9990
2 47790  53.0540  42.0909 0001717  67.6516 292.4655 15.06400392 89669
STARLINK-2322           
1 47791U 21018E   22286.68043061  .00000177  00000+0  30758-4 0  9999
2 47791  53.0551  71.6919 0001194  82.6273 277.4852 15.06404017 89252
STARLINK-2334           
1 47792U 21018F   22287.15775779  .00001084  00000+0  91631-4 0  9996
2 47792  53.0562  49.5729 0001642  61.1334 298.9819 15.06408148 89256
STARLINK-2338           
1 47793U 21018G   22286.64172877  .00001791  00000+0  13913-3 0  9991
2 47793  53.0566  51.8894 0001155  54.0370 306.0725 15.06393111 89519
STARLINK-2341           
1 47794U 21018H   22286.64541744  .00006522  00000+0  45627-3 0  9999
2 47794  53.0555  51.8724 0001534  63.2351 296.8795 15.06406372 89520
STARLINK-2347           
1 47795U 21018J   22287.16513048  .00007209  00000+0  50210-3 0  9991
2 47795  53.0552  49.5419 0001185  67.0239 293.0875 15.06417691 89256
STARLINK-2373           
1 47796U 21018K   22286.64910414  .00002124  00000+0  16153-3 0  9991
2 47796  53.0555  51.8482 0001247  68.0669 292.0453 15.06385114 89528
STARLINK-2377           
1 47797U 21018L   22286.75184659  .00002531  00000+0  18874-3 0  9992
2 47797  53.0560  76.3986 0001235  78.1274 281.9853 15.06395775 89184
STARLINK-2379           
1 47798U 21018M   22286.79284533  .00001617  00000+0  12748-3 0  9997
2 47798  53.0558  51.2101 0001617  61.9086 298.2066 15.06392694 89542
STARLINK-2380           
1 47799U 21018N   22286.85551875  .00002965  00000+0  21786-3 0  9990
2 47799  53.0550  50.9092 0001447  68.9716 291.1428 15.06396287 89207
STARLINK-2381           
1 47800U 21018P   22287.14302024  .00004931  00000+0  34964-3 0  9993
2 47800  53.0536  49.6337 0001834  76.9813 283.1381 15.06406516 89259
STARLINK-2382           
1 47801U 21018Q   22286.64680701  .00001849  00000+0  14301-3 0  9997
2 47801  53.0565  56.9389 0001406  69.0756 291.0384 15.06396980 89450
STARLINK-2383           
1 47802U 21018R   22286.69288031  .00000715  00000+0  66893-4 0  9998
2 47802  53.0554  76.6427 0001472 101.6714 258.4440 15.06387854 88832
STARLINK-2384           
1 47803U 21018S   22287.15407803  .00001364  00000+0  11041-3 0  9996
2 47803  53.0561  49.5882 0001153  75.4432 284.6685 15.06400856 89253
STARLINK-2385           
1 47804U 21018T   22286.83709360  .00000663  00000+0  63418-4 0  9991
2 47804  53.0557  51.0110 0001640  66.0268 294.0893 15.06388026 89547
STARLINK-2386           
1 47805U 21018U   22287.06933013  .00006290  00000+0  44064-3 0  9999
2 47805  53.0550  50.2064 0001438  81.4084 278.7067 15.06409406 89236
STARLINK-2387           
1 47806U 21018V   22286.80805925  .00001175  00000+0  97781-4 0  9993
2 47806  53.0558  66.1445 0001422  65.4609 294.6528 15.06398609 89390
STARLINK-2388           
1 47807U 21018W   22287.12920039  .00003379  00000+0  24563-3 0  9999
2 47807  53.0550  39.7034 0001843  48.4817 311.6330 15.06401543 89384
STARLINK-2389           
1 47808U 21018X   22287.15822172  .00001956  00000+0  15018-3 0  9996
2 47808  53.0558  64.5673 0001430  73.5023 286.6123 15.06397770 89048
STARLINK-2390           
1 47809U 21018Y   22286.89696115  .00004917  00000+0  34870-3 0  9990
2 47809  53.0544  70.7287 0001471  59.0123 301.1010 15.06408450 88932
STARLINK-2391           
1 47810U 21018Z   22286.72374801  .00000524  00000+0  54095-4 0  9991
2 47810  53.0546  81.5112 0001230  94.3845 265.7285 15.06389293 89167
STARLINK-2392           
1 47811U 21018AA  22286.76337544  .00000937  00000+0  81831-4 0  9995
2 47811  53.0566  51.3406 0001590  76.4381 283.6785 15.06388183 89594
STARLINK-2393           
1 47812U 21018AB  22286.73480207  .00003750  00000+0  27046-3 0  9991
2 47812  53.0540  81.4564 0001403  69.2739 290.8400 15.06402559 89101
STARLINK-2394           
1 47813U 21018AC  22286.65279506 -.00000209  00000+0  48478-5 0  9992
2 47813  53.0548  51.8414 0001516  83.3191 276.7970 15.06396408 89570
STARLINK-2395           
1 47814U 21018AD  22286.67673913  .00001152  00000+0  96235-4 0  9995
2 47814  53.0545  71.7210 0001491  72.7317 287.3835 15.06405187 89301
STARLINK-2396           
1 47815U 21018AE  22287.17296926  .00011357  00000+0  78062-3 0  9992
2 47815  53.0557  64.4974 0001489  57.3249 302.7883 15.06375423 89057
STARLINK-2399           
1 47816U 21018AF  22285.85478364 -.00000214  00000+0  45095-5 0  9997
2 47816  53.0551  75.4088 0001108  89.7376 270.3739 15.06394579 88780
STARLINK-2400           
1 47817U 21018AG  22287.13380068  .00002144  00000+0  16279-3 0  9997
2 47817  53.0540  69.6776 0001431  68.3565 291.7577 15.06399875 88972
STARLINK-2401           
1 47818U 21018AH  22286.82830669  .00003411  00000+0  24778-3 0  9991
2 47818  53.0547  76.0268 0001195  88.5306 271.5820 15.06399065 89195
STARLINK-2402           
1 47819U 21018AJ  22286.80481082  .00001307  00000+0  10660-3 0  9998
2 47819  53.0552  71.1337 0001306  70.8519 289.2611 15.06398142 89323
STARLINK-2403           
1 47820U 21018AK  22286.72006165  .00000071  00000+0  23668-4 0  9996
2 47820  53.0541  81.5350 0001442  94.5805 265.5348 15.06392670 88777
STARLINK-2406           
1 47821U 21018AL  22286.83155333  .00002203  00000+0  16672-3 0  9996
2 47821  53.0559  71.0423 0001289  96.3189 263.7947 15.06401285 89269
STARLINK-2407           
1 47822U 21018AM  22286.70806109  .00000402  00000+0  45904-4 0  9997
2 47822  53.0548  81.5656 0001468 111.1378 248.9768 15.06388221 89111
STARLINK-2408           
1 47823U 21018AN  22286.79006870  .00001918  00000+0  14761-3 0  9993
2 47823  53.0556  71.2045 0001385  78.1289 281.9855 15.06397641 89266
STARLINK-2409           
1 47824U 21018AP  22286.71360964  .00001882  00000+0  14527-3 0  9993
2 47824  53.0561  71.5672 0001338  77.9580 282.1559 15.06391006 88915
STARLINK-2410           
1 47825U 21018AQ  22287.13011561  .00001459  00000+0  11681-3 0  9995
2 47825  53.0560  69.6973 0001289  81.8836 278.2299 15.06405099 88971
STARLINK-2411           
1 47826U 21018AR  22286.66200361  .00000697  00000+0  65671-4 0  9993
2 47826  53.0553  71.7924 0001514  65.8941 294.2206 15.06398535 89247
STARLINK-2413           
1 47827U 21018AS  22286.64452790  .00003599  00000+0  26037-3 0  9993
2 47827  53.0549  62.0951 0001343  94.3762 265.7380 15.06398762 89433
STARLINK-2415           
1 47828U 21018AT  22286.57999937 -.00000338  00000+0 -37673-5 0  9995
2 47828  53.0544  82.1584 0001575  86.0574 274.0595 15.06384850 89096
STARLINK-2416           
1 47829U 21018AU  22286.73111716  .00001352  00000+0  10961-3 0  9999
2 47829  53.0571  81.4775 0001138  82.5819 277.5299 15.06401171 89106
STARLINK-2419           
1 47830U 21018AV  22286.92646911  .00001757  00000+0  13685-3 0  9997
2 47830  53.0543  80.6069 0001299  72.4874 287.6256 15.06396500 88801
STARLINK-2420           
1 47831U 21018AW  22286.66154090  .00001528  00000+0  12144-3 0  9996
2 47831  53.0568  56.7928 0000896  22.6232 337.4797 15.06399285 89509
STARLINK-2422           
1 47832U 21018AX  22286.68412746  .00001542  00000+0  12240-3 0  9997
2 47832  53.0564  71.6925 0001478  85.6851 274.4307 15.06387479 88915
STARLINK-2423           
1 47833U 21018AY  22286.77626977  .00002976  00000+0  21868-3 0  9999
2 47833  53.0561  71.2735 0001666  84.6333 275.4846 15.06390990 89317
STARLINK-2424           
1 47834U 21018AZ  22287.11906321  .00001569  00000+0  12425-3 0  9999
2 47834  53.0550  69.7355 0001739  72.5389 287.5790 15.06398297 88975
STARLINK-2425           
1 47835U 21018BA  22286.81452698  .00004507  00000+0  32123-3 0  9991
2 47835  53.0558  76.2312 0001284  88.5362 271.5774 15.06401812 89180
STARLINK-2426           
1 47836U 21018BB  22286.80576598  .00001716  00000+0  13410-3 0  9994
2 47836  53.0561  71.2368 0001453  86.5224 273.5931 15.06399435 89267
STARLINK-2427           
1 47837U 21018BC  22286.74862282  .00002293  00000+0  17281-3 0  9997
2 47837  53.0565  51.3980 0001711  67.7446 292.3724 15.06394996 89542
STARLINK-2429           
1 47838U 21018BD  22286.69517254  .00002449  00000+0  18325-3 0  9991
2 47838  53.0559  71.6511 0001618  66.6461 293.4698 15.06398643 89244
STARLINK-2431           
1 47839U 21018BE  22286.72374176  .00002714  00000+0  20109-3 0  9998
2 47839  53.0561  41.4968 0001595  63.8082 296.3070 15.06394050 89683
STARLINK-2432           
1 47840U 21018BF  22287.13196145  .00005478  00000+0  38626-3 0  9997
2 47840  53.0546  49.6858 0001438  64.2338 295.8799 15.06408341 89255
STARLINK-2433           
1 47841U 21018BG  22286.73019416  .00003305  00000+0  24074-3 0  9997
2 47841  53.0562  51.4909 0001183  74.9072 285.2048 15.06392425 89538
STARLINK-2434           
1 47842U 21018BH  22286.91541566  .00001843  00000+0  14258-3 0  9992
2 47842  53.0547  80.6512 0001205  93.7422 266.3705 15.06394286 88805
STARLINK-2435           
1 47843U 21018BJ  22286.68919847  .00005869  00000+0  41284-3 0  9999
2 47843  53.0549  76.6745 0001402  95.6357 264.4792 15.06372559 88846
STARLINK-2446           
1 47844U 21018BK  22286.88687096  .00012403  00000+0  85113-3 0  9991
2 47844  53.0548  70.7875 0001323  51.1782 308.9325 15.06353525 88945
STARLINK-2453           
1 47845U 21018BL  22287.17065668  .00001437  00000+0  11535-3 0  9992
2 47845  53.0549  69.5030 0001290  77.6581 282.4553 15.06402320 88980
STARLINK-2456           
1 47846U 21018BM  22287.09968590  .00004712  00000+0  33496-3 0  9999
2 47846  53.0559  69.8251 0001445  71.3096 288.8050 15.06409180 88976
